[{"OBJECT_NAME":"STARLINK-4032","OBJECT_ID":"2022-053AJ","EPOCH":"2026-03-09T12:32:54.779136","MEAN_MOTION":15.08838305,"ECCENTRICITY":0.00013111,"INCLINATION":53.2175,"RA_OF_ASC_NODE":144.7569,"ARG_OF_PERICENTER":92.8104,"MEAN_ANOMALY":267.3038,"EPHEMERIS_TYPE":0,"CLASSIFICATION_TYPE":"U","NORAD_CAT_ID":52688,"ELEMENT_SET_NO":999,"REV_AT_EPOCH":21109,"BSTAR":8.993393e-6,"MEAN_MOTION_DOT":-1.45e-6,"MEAN_MOTION_DDOT":0},{"OBJECT_NAME":"COSMOS 2058","OBJECT_ID":"1990-010A","EPOCH":"2026-03-09T23:30:01.891584","MEAN_MOTION":15.11324867,"ECCENTRICITY":0.00093159,"INCLINATION":82.4669,"RA_OF_ASC_NODE":47.1427,"ARG_OF_PERICENTER":343.3032,"MEAN_ANOMALY":16.789,"EPHEMERIS_TYPE":0,"CLASSIFICATION_TYPE":"U","NORAD_CAT_ID":20465,"ELEMENT_SET_NO":999,"REV_AT_EPOCH":94228,"BSTAR":0.00029943939,"MEAN_MOTION_DOT":5.077e-5,"MEAN_MOTION_DDOT":0}]
